{
  "type": "FeatureCollection",
  "features": [
    {
      "type": "Feature",
      "properties": {
        "norad_id": 61183,
        "name": "GSAT0226 (GALILEO 31)",
        "group": "gnss",
        "lat": -25.777314866949492,
        "lon": -153.48941668082676,
        "alt_km": 23228.373307544265,
        "timestamp": "2025-12-25T09:48:52.535872+00:00",
        "meta_object_name": "GSAT0226 (GALILEO 31)",
        "meta_object_id": "2024-167B",
        "meta_epoch": "2025-12-23T09:50:40.022880",
        "meta_mean_motion": 1.70473667,
        "meta_eccentricity": 0.00012164,
        "meta_inclination": 55.2365,
        "meta_ra_of_asc_node": 226.1435,
        "meta_arg_of_pericenter": 108.5259,
        "meta_mean_anomaly": 72.9218,
        "meta_ephemeris_type": 0,
        "meta_classification_type": "U",
        "meta_norad_cat_id": 61183,
        "meta_element_set_no": 999,
        "meta_rev_at_epoch": 785,
        "meta_bstar": 0,
        "meta_mean_motion_dot": 7.3e-07,
        "meta_mean_motion_ddot": 0,
        "tle_line1": "1 61183U 24167B   25357.41018545  .00000073  00000+0  00000+0 0  9997",
        "tle_line2": "2 61183  55.2365 226.1435 0001216 108.5259  72.9218  1.70473667  7850"
      },
      "geometry": {
        "type": "Point",
        "coordinates": [
          -153.48941668082676,
          -25.777314866949492
        ]
      }
    },
    {
      "type": "Feature",
      "properties": {
        "norad_id": 61186,
        "name": "BEIDOU-3 M25 (C47)",
        "group": "gnss",
        "lat": -39.42118438124067,
        "lon": -87.41708551437898,
        "alt_km": 21517.88962912658,
        "timestamp": "2025-12-25T09:48:52.535887+00:00",
        "meta_object_name": "BEIDOU-3 M25 (C47)",
        "meta_object_id": "2024-168B",
        "meta_epoch": "2025-12-24T22:47:22.891200",
        "meta_mean_motion": 1.86230024,
        "meta_eccentricity": 0.0005414,
        "meta_inclination": 54.6312,
        "meta_ra_of_asc_node": 308.298,
        "meta_arg_of_pericenter": 300.1536,
        "meta_mean_anomaly": 60.716,
        "meta_ephemeris_type": 0,
        "meta_classification_type": "U",
        "meta_norad_cat_id": 61186,
        "meta_element_set_no": 999,
        "meta_rev_at_epoch": 854,
        "meta_bstar": 0,
        "meta_mean_motion_dot": -5.3e-07,
        "meta_mean_motion_ddot": 0,
        "tle_line1": "1 61186U 24168B   25358.94957050 -.00000053  00000+0  00000+0 0  9992",
        "tle_line2": "2 61186  54.6312 308.2980 0005414 300.1536  60.7160  1.86230024  8540"
      },
      "geometry": {
        "type": "Point",
        "coordinates": [
          -87.41708551437898,
          -39.42118438124067
        ]
      }
    },
    {
      "type": "Feature",
      "properties": {
        "norad_id": 61187,
        "name": "BEIDOU-3 M27 (C49)",
        "group": "gnss",
        "lat": 54.17458161837099,
        "lon": 27.696067088080266,
        "alt_km": 21523.385224034013,
        "timestamp": "2025-12-25T09:48:52.535901+00:00",
        "meta_object_name": "BEIDOU-3 M27 (C49)",
        "meta_object_id": "2024-168C",
        "meta_epoch": "2025-12-24T11:58:42.703968",
        "meta_mean_motion": 1.86230214,
        "meta_eccentricity": 0.00025498,
        "meta_inclination": 54.6271,
        "meta_ra_of_asc_node": 308.2972,
        "meta_arg_of_pericenter": 341.1652,
        "meta_mean_anomaly": 212.6408,
        "meta_ephemeris_type": 0,
        "meta_classification_type": "U",
        "meta_norad_cat_id": 61187,
        "meta_element_set_no": 999,
        "meta_rev_at_epoch": 600,
        "meta_bstar": 0,
        "meta_mean_motion_dot": -5.3e-07,
        "meta_mean_motion_ddot": 0,
        "tle_line1": "1 61187U 24168C   25358.49910537 -.00000053  00000+0  00000+0 0  9992",
        "tle_line2": "2 61187  54.6271 308.2972 0002549 341.1652 212.6408  1.86230214  6009"
      },
      "geometry": {
        "type": "Point",
        "coordinates": [
          27.696067088080266,
          54.17458161837099
        ]
      }
    },
    {
      "type": "Feature",
      "properties": {
        "norad_id": 62339,
        "name": "GPS BIII-7  (PRN 01)",
        "group": "gnss",
        "lat": 37.94933255948606,
        "lon": 14.43805543883392,
        "alt_km": 20161.425014700217,
        "timestamp": "2025-12-25T09:48:52.535912+00:00",
        "meta_object_name": "GPS BIII-7  (PRN 01)",
        "meta_object_id": "2024-242A",
        "meta_epoch": "2025-12-24T14:08:35.073312",
        "meta_mean_motion": 2.00568073,
        "meta_eccentricity": 0.00128162,
        "meta_inclination": 54.9201,
        "meta_ra_of_asc_node": 341.2611,
        "meta_arg_of_pericenter": 346.3759,
        "meta_mean_anomaly": 190.3817,
        "meta_ephemeris_type": 0,
        "meta_classification_type": "U",
        "meta_norad_cat_id": 62339,
        "meta_element_set_no": 999,
        "meta_rev_at_epoch": 775,
        "meta_bstar": 0,
        "meta_mean_motion_dot": -6.2e-07,
        "meta_mean_motion_ddot": 0,
        "tle_line1": "1 62339U 24242A   25358.58929483 -.00000062  00000+0  00000+0 0  9995",
        "tle_line2": "2 62339  54.9201 341.2611 0012816 346.3759 190.3817  2.00568073  7758"
      },
      "geometry": {
        "type": "Point",
        "coordinates": [
          14.43805543883392,
          37.94933255948606
        ]
      }
    },
    {
      "type": "Feature",
      "properties": {
        "norad_id": 62850,
        "name": "NVS-02 (IRNSS-1K)",
        "group": "gnss",
        "lat": -10.306163875753105,
        "lon": -65.25203126670752,
        "alt_km": 2439.18034678584,
        "timestamp": "2025-12-25T09:48:52.535924+00:00",
        "meta_object_name": "NVS-02 (IRNSS-1K)",
        "meta_object_id": "2025-020A",
        "meta_epoch": "2025-12-23T02:48:28.612512",
        "meta_mean_motion": 2.17602057,
        "meta_eccentricity": 0.73473509,
        "meta_inclination": 20.9588,
        "meta_ra_of_asc_node": 323.9017,
        "meta_arg_of_pericenter": 32.9618,
        "meta_mean_anomaly": 356.3768,
        "meta_ephemeris_type": 0,
        "meta_classification_type": "U",
        "meta_norad_cat_id": 62850,
        "meta_element_set_no": 999,
        "meta_rev_at_epoch": 714,
        "meta_bstar": 0.00026724694,
        "meta_mean_motion_dot": 1.47e-06,
        "meta_mean_motion_ddot": 0,
        "tle_line1": "1 62850U 25020A   25357.11699783  .00000147  00000+0  26725-3 0  9992",
        "tle_line2": "2 62850  20.9588 323.9017 7347350  32.9618 356.3768  2.17602057  7148"
      },
      "geometry": {
        "type": "Point",
        "coordinates": [
          -65.25203126670752,
          -10.306163875753105
        ]
      }
    },
    {
      "type": "Feature",
      "properties": {
        "norad_id": 62876,
        "name": "QZS-6 (QZSS/PRN 200)",
        "group": "gnss",
        "lat": -0.06939321277661281,
        "lon": -28.063437959561632,
        "alt_km": 35782.03375349376,
        "timestamp": "2025-12-25T09:48:52.535937+00:00",
        "meta_object_name": "QZS-6 (QZSS/PRN 200)",
        "meta_object_id": "2025-023A",
        "meta_epoch": "2025-12-24T19:49:25.245696",
        "meta_mean_motion": 1.00270652,
        "meta_eccentricity": 0.00016452,
        "meta_inclination": 0.0583,
        "meta_ra_of_asc_node": 74.0221,
        "meta_arg_of_pericenter": 207.3878,
        "meta_mean_anomaly": 200.0828,
        "meta_ephemeris_type": 0,
        "meta_classification_type": "U",
        "meta_norad_cat_id": 62876,
        "meta_element_set_no": 999,
        "meta_rev_at_epoch": 321,
        "meta_bstar": 0,
        "meta_mean_motion_dot": -2.12e-06,
        "meta_mean_motion_ddot": 0,
        "tle_line1": "1 62876U 25023A   25358.82598664 -.00000212  00000+0  00000+0 0  9996",
        "tle_line2": "2 62876   0.0583  74.0221 0001645 207.3878 200.0828  1.00270652  3213"
      },
      "geometry": {
        "type": "Point",
        "coordinates": [
          -28.063437959561632,
          -0.06939321277661281
        ]
      }
    },
    {
      "type": "Feature",
      "properties": {
        "norad_id": 63130,
        "name": "COSMOS 2584 (704K)",
        "group": "gnss",
        "lat": -63.63265668406171,
        "lon": 8.55960738841053,
        "alt_km": 19125.85962505972,
        "timestamp": "2025-12-25T09:48:52.535949+00:00",
        "meta_object_name": "COSMOS 2584 (704K)",
        "meta_object_id": "2025-042A",
        "meta_epoch": "2025-12-24T02:34:25.549824",
        "meta_mean_motion": 2.13102981,
        "meta_eccentricity": 0.00077651,
        "meta_inclination": 64.9819,
        "meta_ra_of_asc_node": 78.7588,
        "meta_arg_of_pericenter": 220.6893,
        "meta_mean_anomaly": 139.3012,
        "meta_ephemeris_type": 0,
        "meta_classification_type": "U",
        "meta_norad_cat_id": 63130,
        "meta_element_set_no": 999,
        "meta_rev_at_epoch": 631,
        "meta_bstar": 0,
        "meta_mean_motion_dot": 1e-08,
        "meta_mean_motion_ddot": 0,
        "tle_line1": "1 63130U 25042A   25358.10724016  .00000001  00000+0  00000+0 0  9999",
        "tle_line2": "2 63130  64.9819  78.7588 0007765 220.6893 139.3012  2.13102981  6316"
      },
      "geometry": {
        "type": "Point",
        "coordinates": [
          8.55960738841053,
          -63.63265668406171
        ]
      }
    }
  ]
}